ONEWEB-0029             
1 45445U 20020X   25088.81974861  .00000497  00000+0  13675-2 0  9996
2 45445  87.8799 109.6445 0002169  92.3242 267.8135 13.11416190244415
ONEWEB-0068             
1 45446U 20020Y   25089.10614558  .00000285  00000+0  76748-3 0  9990
2 45446  87.8800 109.5753 0002113  90.8665 269.2705 13.11417576244408
ONEWEB-0046             
1 45447U 20020Z   25088.79260943  .00000082  00000+0  19464-3 0  9997
2 45447  87.8801 109.6474 0002111  99.8547 260.2819 13.11417622244361
ONEWEB-0063             
1 45448U 20020AA  25089.12662650  .00000506  00000+0  13905-2 0  9991
2 45448  87.8797 109.5794 0001920 100.8300 259.3044 13.11414365244491
ONEWEB-0019             
1 45449U 20020AB  25088.94860287  .00000223  00000+0  59445-3 0  9993
2 45449  87.8804 109.6295 0001694  86.9882 273.1440 13.11420975244314
ONEWEB-0094             
1 45450U 20020AC  25088.75092188  .00000040  00000+0  69074-4 0  9998
2 45450  87.9001  94.3590 0001988  91.5797 268.5562 13.17651696247786
ONEWEB-0087             
1 45451U 20020AD  25089.13666006  .00000131  00000+0  33471-3 0  9990
2 45451  87.8791 109.5350 0002231  92.8198 267.3185 13.11415449244396
ONEWEB-0082             
1 45452U 20020AE  25088.75192341  .00000252  00000+0  67386-3 0  9990
2 45452  87.8800 109.6296 0002025  88.0856 272.0503 13.11415879244425
ONEWEB-0050             
1 45453U 20020AF  25088.65747323  .00005440  00000+0  50417-3 0  9997
2 45453  87.9991 315.6276 0004827 110.0662 250.1088 14.94311420274188
ONEWEB-0034             
1 45454U 20020AG  25089.07913774 -.00000528  00000+0 -15253-2 0  9992
2 45454  87.8796 109.5836 0001946  92.0794 268.0557 13.11415539244390
ONEWEB-0060             
1 45455U 20020AH  25089.12168316  .00000591  00000+0  16309-2 0  9994
2 45455  87.8802 109.6002 0001938  97.5188 262.6160 13.11416827244350
ONEWEB-0086             
1 45456U 20020AJ  25088.79940093  .00000336  00000+0  91220-3 0  9990
2 45456  87.8800 109.6388 0002348  91.6278 268.5119 13.11417392244365
ONEWEB-0088             
1 45457U 20020AK  25088.77734062 -.00000515  00000+0 -14882-2 0  9995
2 45457  87.8796 109.5961 0002117  95.2591 264.8779 13.11417071244295
ONEWEB-0102             
1 47258U 20100A   25088.97703068  .00001962  00000+0  54154-2 0  9990
2 47258  87.8814  79.0811 0001910  85.0119 275.1227 13.12460595206465
ONEWEB-0109             
1 47259U 20100B   25088.90892743 -.00000261  00000+0 -76011-3 0  9993
2 47259  87.8816  79.0625 0001798  84.2254 275.9080 13.12441667206280
ONEWEB-0110             
1 47260U 20100C   25088.93488086 -.00000058  00000+0 -19735-3 0  9993
2 47260  87.8809  79.0464 0001914  82.5060 277.6286 13.12443288206458
ONEWEB-0111             
1 47261U 20100D   25088.96570925  .00000356  00000+0  95534-3 0  9991
2 47261  87.8815  79.0507 0001808  85.7705 274.3630 13.12443068206292
ONEWEB-0114             
1 47262U 20100E   25088.92027668 -.00000397  00000+0 -11395-2 0  9998
2 47262  87.8811  79.0632 0001551  86.6493 273.4813 13.12441519206244
ONEWEB-0117             
1 47263U 20100F   25088.91216863 -.00000287  00000+0 -83366-3 0  9991
2 47263  87.8816  79.0522 0001932  86.2783 273.8566 13.12442108206254
ONEWEB-0118             
1 47264U 20100G   25089.24956880  .00000120  00000+0  29909-3 0  9996
2 47264  87.8814  78.9869 0001644  95.5120 264.6196 13.12443599206491
ONEWEB-0119             
1 47265U 20100H   25088.97219479  .00000209  00000+0  54486-3 0  9998
2 47265  87.8813  79.0814 0001878  84.7804 275.3538 13.12441382206432
ONEWEB-0120             
1 47266U 20100J   25088.91880682 -.00000385  00000+0 -11059-2 0  9998
2 47266  87.8817  79.0857 0001737  87.0610 273.0717 13.12442854206450
ONEWEB-0121             
1 47267U 20100K   25089.21224691 -.00000211  00000+0 -62286-3 0  9992
2 47267  87.8811  79.0029 0001963  83.3852 276.7500 13.12440052206407
ONEWEB-0122             
1 47268U 20100L   25088.90230293 -.00000021  00000+0 -94285-4 0  9997
2 47268  87.8810  79.0700 0001838  81.6482 278.4855 13.12441778206277
ONEWEB-0123             
1 47269U 20100M   25088.97381627  .00000101  00000+0  24405-3 0  9996
2 47269  87.8814  79.0796 0001828  88.7256 271.4082 13.12441021206426
ONEWEB-0124             
1 47270U 20100N   25089.03870315  .00000440  00000+0  11881-2 0  9992
2 47270  87.8815  79.0644 0002109  87.5269 272.6101 13.12443038206318
ONEWEB-0125             
1 47271U 20100P   25088.93975154  .00000070  00000+0  15841-3 0  9998
2 47271  87.8815  79.0462 0002077  94.8594 265.2772 13.12443158206363
ONEWEB-0126             
1 47272U 20100Q   25088.96489010  .00000327  00000+0  87490-3 0  9997
2 47272  87.8834  79.0392 0001748  86.3375 273.7954 13.12440905206435
ONEWEB-0127             
1 47273U 20100R   25089.23172183 -.00000426  00000+0 -12197-2 0  9992
2 47273  87.8816  79.0212 0001762  83.9583 276.1746 13.12444279206497
ONEWEB-0128             
1 47274U 20100S   25088.94949309  .00000458  00000+0  12386-2 0  9995
2 47274  87.8818  79.0983 0001937  80.1307 280.0040 13.12443679206474
ONEWEB-0129             
1 47275U 20100T   25088.92838382 -.00000268  00000+0 -77965-3 0  9998
2 47275  87.8816  79.0519 0000713  69.5270 290.5935 13.12442225206407
ONEWEB-0130             
1 47276U 20100U   25088.95597605  .00000453  00000+0  12228-2 0  9996
2 47276  87.8812  79.0492 0001885  83.4995 276.6348 13.12442991206373
ONEWEB-0131             
1 47277U 20100V   25089.02897002  .00000417  00000+0  11233-2 0  9995
2 47277  87.8815  79.0578 0001961  84.5364 275.5988 13.12443824206429
ONEWEB-0132             
1 47278U 20100W   25088.98192129 -.00000205  00000+0 -60657-3 0  9990
2 47278  87.8815  79.0683 0002106  88.2847 271.8522 13.12440353206311
ONEWEB-0133             
1 47279U 20100X   25088.92190362 -.00000338  00000+0 -97506-3 0  9992
2 47279  87.8810  79.0630 0001986  83.5907 276.5447 13.12442438206469
ONEWEB-0134             
1 47280U 20100Y   25089.19604260  .00000317  00000+0  84444-3 0  9993
2 47280  87.8810  78.9930 0001793  78.1158 282.0172 13.12441873206476
ONEWEB-0135             
1 47281U 20100Z   25088.93811443 -.00000014  00000+0 -74830-4 0  9993
2 47281  87.8814  79.0770 0001982  72.4569 287.6776 13.12441598206462
ONEWEB-0136             
1 47282U 20100AA  25089.03383483  .00000419  00000+0  11289-2 0  9998
2 47282  87.8815  79.0251 0001652  72.0138 288.1170 13.12442322206404
ONEWEB-0137             
1 47283U 20100AB  25088.91541395 -.00000335  00000+0 -96706-3 0  9990
2 47283  87.8811  79.0599 0001764  91.8824 268.2506 13.12442839206293
ONEWEB-0138             
1 47284U 20100AC  25088.97057090  .00000252  00000+0  66493-3 0  9997
2 47284  87.8810  79.0608 0001785  84.1340 275.9992 13.12440976206389
ONEWEB-0139             
1 47285U 20100AD  25089.23835863 -.00000195  00000+0 -57857-3 0  9992
2 47285  87.8817  78.9933 0001883  86.2292 273.9051 13.12444005206497
ONEWEB-0140             
1 47286U 20100AE  25089.19279914  .00000389  00000+0  10465-2 0  9993
2 47286  87.8809  78.9929 0001826  82.8310 277.3026 13.12442233206440
ONEWEB-0141             
1 47287U 20100AF  25088.93311730 -.00000159  00000+0 -47778-3 0  9993
2 47287  87.8811  79.0609 0001714  97.4529 262.6794 13.12443412206406
ONEWEB-0142             
1 47288U 20100AG  25088.91657846 -.00000523  00000+0 -15222-2 0  9996
2 47288  87.8818  79.0527 0001593  89.2466 270.8845 13.10882855206399
ONEWEB-0143             
1 47289U 20100AH  25088.93163459 -.00000205  00000+0 -60519-3 0  9998
2 47289  87.8813  79.0655 0001885  86.4584 273.6760 13.12442980206379
ONEWEB-0144             
1 47290U 20100AJ  25088.98029791 -.00000156  00000+0 -46903-3 0  9991
2 47290  87.8811  79.0376 0001576  84.2243 275.9065 13.12441368206309
ONEWEB-0145             
1 47291U 20100AK  25088.95109311  .00000382  00000+0  10268-2 0  9999
2 47291  87.8812  79.0690 0001797  86.1655 273.9679 13.12441094206498
ONEWEB-0146             
1 47292U 20100AL  25088.94786611  .00000301  00000+0  80156-3 0  9998
2 47292  87.8812  79.0555 0002288  87.7478 272.3912 13.12443671206402
ONEWEB-0147             
1 47293U 20100AM  25088.91379184 -.00000363  00000+0 -10450-2 0  9998
2 47293  87.8810  79.0450 0001856  77.7263 282.4073 13.12441579206298
ONEWEB-0115             
1 48042U 21025A   25088.90798912 -.00000318  00000+0 -90463-3 0  9994
2 48042  87.8946  48.5125 0001952  81.8508 278.2843 13.13469922195272
ONEWEB-0152             
1 48043U 21025B   25088.92152552 -.00000134  00000+0 -40246-3 0  9991
2 48043  87.8948  48.5200 0002132  81.9224 278.2147 13.13471117195238
ONEWEB-0153             
1 48044U 21025C   25089.12806416 -.00000208  00000+0 -60470-3 0  9993
2 48044  87.8952  48.4738 0001846  81.9785 278.1553 13.13469656195260
ONEWEB-0154             
1 48045U 21025D   25088.89615073 -.00000145  00000+0 -43161-3 0  9992
2 48045  87.8947  48.5223 0001928  80.3920 279.7427 13.13470868195185
ONEWEB-0116             
1 48046U 21025E   25088.93509233  .00000135  00000+0  33531-3 0  9995
2 48046  87.8949  48.4918 0002066  80.2067 279.9295 13.13471611195332
ONEWEB-0150             
1 48047U 21025F   25088.91137208 -.00000263  00000+0 -75612-3 0  9993
2 48047  87.8948  48.4987 0001774  84.5862 275.5470 13.13469925195223
ONEWEB-0107             
1 48048U 21025G   25088.91307037 -.00000288  00000+0 -82464-3 0  9993
2 48048  87.8946  48.4963 0001569  79.9303 280.2003 13.13470358195201
ONEWEB-0101             
1 48049U 21025H   25089.18054394  .00000360  00000+0  95218-3 0  9999
2 48049  87.8951  48.4762 0001820  77.7294 282.4039 13.13471853195215
ONEWEB-0113             
1 48050U 21025J   25088.91560728 -.00000179  00000+0 -52079-3 0  9992
2 48050  87.8950  48.5018 0001964  84.3788 275.7566 13.13988632195265
ONEWEB-0112             
1 48051U 21025K   25089.14668813 -.00000326  00000+0 -92845-3 0  9992
2 48051  87.8946  48.4468 0001840  84.7626 275.3713 13.13470298195317
